{"type": "FeatureCollection", "features": [ {"type": "Feature", "properties": {"norad_id": 30208, "name": "FENGYUN 1C DEB", "group": "fengyun-1c-debris", "lat": -44.865291383321164, "lon": -5.069562091223919, "alt_km": 801.9297859092549, "timestamp": "2025-12-11T07:02:24.004919+00:00", "meta": {"OBJECT_NAME": "FENGYUN 1C DEB", "OBJECT_ID": "1999-025VR", "EPOCH": "2025-12-10T18:36:25.633152", "MEAN_MOTION": 14.23519541, "ECCENTRICITY": 0.00329769, "INCLINATION": 98.5619, "RA_OF_ASC_NODE": 345.8026, "ARG_OF_PERICENTER": 276.1528, "MEAN_ANOMALY": 264.9197, "EPHEMERIS_TYPE": 0, "CLASSIFICATION_TYPE": "U", "NORAD_CAT_ID": 30208, "ELEMENT_SET_NO": 999, "REV_AT_EPOCH": 97809, "BSTAR": 0.0007533077, "MEAN_MOTION_DOT": 1.68e-05, "MEAN_MOTION_DDOT": 0}, "tle": {"line1": "1 30208U 99025VR  25344.77529668  .00001680  00000+0  75331-3 0  9992", "line2": "2 30208  98.5619 345.8026 0032976 276.1528 264.9197 14.23519541978095"}}, "geometry": {"type": "Point", "coordinates": [-5.069562091223919, -44.865291383321164]}}, {"type": "Feature", "properties": {"norad_id": 30209, "name": "FENGYUN 1C DEB", "group": "fengyun-1c-debris", "lat": -7.464285458708837, "lon": -16.687289747862252, "alt_km": 862.519085684492, "timestamp": "2025-12-11T07:02:24.004930+00:00", "meta": {"OBJECT_NAME": "FENGYUN 1C DEB", "OBJECT_ID": "1999-025VS", "EPOCH": "2025-12-10T18:20:23.100000", "MEAN_MOTION": 14.12898528, "ECCENTRICITY": 0.0038635, "INCLINATION": 98.7139, "RA_OF_ASC_NODE": 341.6464, "ARG_OF_PERICENTER": 244.568, "MEAN_ANOMALY": 297.4601, "EPHEMERIS_TYPE": 0, "CLASSIFICATION_TYPE": "U", "NORAD_CAT_ID": 30209, "ELEMENT_SET_NO": 999, "REV_AT_EPOCH": 97178, "BSTAR": 0.00065379171, "MEAN_MOTION_DOT": 1.182e-05, "MEAN_MOTION_DDOT": 0}, "tle": {"line1": "1 30209U 99025VS  25344.76415625  .00001182  00000+0  65379-3 0  9997", "line2": "2 30209  98.7139 341.6464 0038635 244.5680 297.4601 14.12898528971784"}}, "geometry": {"type": "Point", "coordinates": [-16.687289747862252, -7.464285458708837]}}, {"type": "Feature", "properties": {"norad_id": 30210, "name": "FENGYUN 1C DEB", "group": "fengyun-1c-debris", "lat": 22.089329439473648, "lon": 31.246520836350665, "alt_km": 884.0113071640681, "timestamp": "2025-12-11T07:02:24.004940+00:00", "meta": {"OBJECT_NAME": "FENGYUN 1C DEB", "OBJECT_ID": "1999-025VT", "EPOCH": "2025-12-10T02:05:15.433152", "MEAN_MOTION": 14.08258534, "ECCENTRICITY": 0.00569425, "INCLINATION": 99.1907, "RA_OF_ASC_NODE": 33.7857, "ARG_OF_PERICENTER": 143.6395, "MEAN_ANOMALY": 246.9199, "EPHEMERIS_TYPE": 0, "CLASSIFICATION_TYPE": "U", "NORAD_CAT_ID": 30210, "ELEMENT_SET_NO": 999, "REV_AT_EPOCH": 96720, "BSTAR": 0.00091661211, "MEAN_MOTION_DOT": 1.544e-05, "MEAN_MOTION_DDOT": 0}, "tle": {"line1": "1 30210U 99025VT  25344.08698418  .00001544  00000+0  91661-3 0  9992", "line2": "2 30210  99.1907  33.7857 0056942 143.6395 246.9199 14.08258534967207"}}, "geometry": {"type": "Point", "coordinates": [31.246520836350665, 22.089329439473648]}}, {"type": "Feature", "properties": {"norad_id": 30212, "name": "FENGYUN 1C DEB", "group": "fengyun-1c-debris", "lat": -27.769117448082277, "lon": -144.33197605044393, "alt_km": 909.7750546973648, "timestamp": "2025-12-11T07:02:24.004952+00:00", "meta": {"OBJECT_NAME": "FENGYUN 1C DEB", "OBJECT_ID": "1999-025VV", "EPOCH": "2025-12-10T08:49:49.456992", "MEAN_MOTION": 13.97053508, "ECCENTRICITY": 0.00968666, "INCLINATION": 99.4577, "RA_OF_ASC_NODE": 209.6812, "ARG_OF_PERICENTER": 243.8128, "MEAN_ANOMALY": 115.3048, "EPHEMERIS_TYPE": 0, "CLASSIFICATION_TYPE": "U", "NORAD_CAT_ID": 30212, "ELEMENT_SET_NO": 999, "REV_AT_EPOCH": 96192, "BSTAR": 0.00044247186, "MEAN_MOTION_DOT": 5.95e-06, "MEAN_MOTION_DDOT": 0}, "tle": {"line1": "1 30212U 99025VV  25344.36793353  .00000595  00000+0  44247-3 0  9992", "line2": "2 30212  99.4577 209.6812 0096866 243.8128 115.3048 13.97053508961922"}}, "geometry": {"type": "Point", "coordinates": [-144.33197605044393, -27.769117448082277]}}, {"type": "Feature", "properties": {"norad_id": 30213, "name": "FENGYUN 1C DEB", "group": "fengyun-1c-debris", "lat": -32.881577701449125, "lon": 67.67130411882665, "alt_km": 849.8921103280009, "timestamp": "2025-12-11T07:02:24.004969+00:00", "meta": {"OBJECT_NAME": "FENGYUN 1C DEB", "OBJECT_ID": "1999-025VW", "EPOCH": "2025-12-10T16:36:58.832640", "MEAN_MOTION": 14.11556882, "ECCENTRICITY": 0.00714913, "INCLINATION": 99.1218, "RA_OF_ASC_NODE": 61.0988, "ARG_OF_PERICENTER": 249.399, "MEAN_ANOMALY": 264.2511, "EPHEMERIS_TYPE": 0, "CLASSIFICATION_TYPE": "U", "NORAD_CAT_ID": 30213, "ELEMENT_SET_NO": 999, "REV_AT_EPOCH": 96486, "BSTAR": 0.0024033056, "MEAN_MOTION_DOT": 4.425e-05, "MEAN_MOTION_DDOT": 0}, "tle": {"line1": "1 30213U 99025VW  25344.69234760  .00004425  00000+0  24033-2 0  9997", "line2": "2 30213  99.1218  61.0988 0071491 249.3990 264.2511 14.11556882964866"}}, "geometry": {"type": "Point", "coordinates": [67.67130411882665, -32.881577701449125]}}, {"type": "Feature", "properties": {"norad_id": 30214, "name": "FENGYUN 1C DEB", "group": "fengyun-1c-debris", "lat": 40.07294646657516, "lon": 51.016353832547296, "alt_km": 770.7042030075318, "timestamp": "2025-12-11T07:02:24.004980+00:00", "meta": {"OBJECT_NAME": "FENGYUN 1C DEB", "OBJECT_ID": "1999-025VX", "EPOCH": "2025-12-10T16:27:38.894976", "MEAN_MOTION": 14.30893979, "ECCENTRICITY": 0.00209608, "INCLINATION": 98.7242, "RA_OF_ASC_NODE": 57.829, "ARG_OF_PERICENTER": 51.1619, "MEAN_ANOMALY": 102.177, "EPHEMERIS_TYPE": 0, "CLASSIFICATION_TYPE": "U", "NORAD_CAT_ID": 30214, "ELEMENT_SET_NO": 999, "REV_AT_EPOCH": 97537, "BSTAR": 0.0025767627, "MEAN_MOTION_DOT": 6.742e-05, "MEAN_MOTION_DDOT": 0}, "tle": {"line1": "1 30214U 99025VX  25344.68586684  .00006742  00000+0  25768-2 0  9992", "line2": "2 30214  98.7242  57.8290 0020960  51.1619 102.1770 14.30893979975377"}}, "geometry": {"type": "Point", "coordinates": [51.016353832547296, 40.07294646657516]}}, {"type": "Feature", "properties": {"norad_id": 30217, "name": "FENGYUN 1C DEB", "group": "fengyun-1c-debris", "lat": -44.42229065949736, "lon": 140.76275216746416, "alt_km": 866.6576043804162, "timestamp": "2025-12-11T07:02:24.004989+00:00", "meta": {"OBJECT_NAME": "FENGYUN 1C DEB", "OBJECT_ID": "1999-025WA", "EPOCH": "2025-12-10T16:31:05.658816", "MEAN_MOTION": 14.24830114, "ECCENTRICITY": 0.01406655, "INCLINATION": 98.4312, "RA_OF_ASC_NODE": 328.5394, "ARG_OF_PERICENTER": 105.7866, "MEAN_ANOMALY": 255.8876, "EPHEMERIS_TYPE": 0, "CLASSIFICATION_TYPE": "U", "NORAD_CAT_ID": 30217, "ELEMENT_SET_NO": 999, "REV_AT_EPOCH": 98044, "BSTAR": 0.00035484558, "MEAN_MOTION_DOT": 8.77e-06, "MEAN_MOTION_DDOT": 0}, "tle": {"line1": "1 30217U 99025WA  25344.68825994  .00000877  00000+0  35485-3 0  9996", "line2": "2 30217  98.4312 328.5394 0140665 105.7866 255.8876 14.24830114980445"}}, "geometry": {"type": "Point", "coordinates": [140.76275216746416, -44.42229065949736]}}, {"type": "Feature", "properties": {"norad_id": 30218, "name": "FENGYUN 1C DEB", "group": "fengyun-1c-debris", "lat": 66.86781617513032, "lon": 52.88144284538536, "alt_km": 839.1877488118762, "timestamp": "2025-12-11T07:02:24.005000+00:00", "meta": {"OBJECT_NAME": "FENGYUN 1C DEB", "OBJECT_ID": "1999-025WB", "EPOCH": "2025-12-08T04:54:15.668928", "MEAN_MOTION": 14.28715519, "ECCENTRICITY": 0.0070547, "INCLINATION": 98.9848, "RA_OF_ASC_NODE": 71.4383, "ARG_OF_PERICENTER": 267.0889, "MEAN_ANOMALY": 122.254, "EPHEMERIS_TYPE": 0, "CLASSIFICATION_TYPE": "U", "NORAD_CAT_ID": 30218, "ELEMENT_SET_NO": 999, "REV_AT_EPOCH": 97044, "BSTAR": 0.0033660889, "MEAN_MOTION_DOT": 8.66e-05, "MEAN_MOTION_DDOT": 0}, "tle": {"line1": "1 30218U 99025WB  25342.20434802  .00008660  00000+0  33661-2 0  9998", "line2": "2 30218  98.9848  71.4383 0070547 267.0889 122.2540 14.28715519970444"}}, "geometry": {"type": "Point", "coordinates": [52.88144284538536, 66.86781617513032]}}, {"type": "Feature", "properties": {"norad_id": 30221, "name": "FENGYUN 1C DEB", "group": "fengyun-1c-debris", "lat": -68.8939898940556, "lon": -131.23780704881224, "alt_km": 840.1834286590874, "timestamp": "2025-12-11T07:02:24.005010+00:00", "meta": {"OBJECT_NAME": "FENGYUN 1C DEB", "OBJECT_ID": "1999-025WE", "EPOCH": "2025-12-10T11:36:56.907936", "MEAN_MOTION": 14.45807077, "ECCENTRICITY": 0.01455704, "INCLINATION": 98.9565, "RA_OF_ASC_NODE": 72.0239, "ARG_OF_PERICENTER": 48.0949, "MEAN_ANOMALY": 313.2549, "EPHEMERIS_TYPE": 0, "CLASSIFICATION_TYPE": "U", "NORAD_CAT_ID": 30221, "ELEMENT_SET_NO": 999, "REV_AT_EPOCH": 99368, "BSTAR": 0.00032674831, "MEAN_MOTION_DOT": 1.266e-05, "MEAN_MOTION_DDOT": 0}, "tle": {"line1": "1 30221U 99025WE  25344.48399199  .00001266  00000+0  32675-3 0  9993", "line2": "2 30221  98.9565  72.0239 0145570  48.0949 313.2549 14.45807077993686"}}, "geometry": {"type": "Point", "coordinates": [-131.23780704881224, -68.8939898940556]}}, {"type": "Feature", "properties": {"norad_id": 30222, "name": "FENGYUN 1C DEB", "group": "fengyun-1c-debris", "lat": 79.87769792847408, "lon": -41.95739728086333, "alt_km": 852.3071075569196, "timestamp": "2025-12-11T07:02:24.005020+00:00", "meta": {"OBJECT_NAME": "FENGYUN 1C DEB", "OBJECT_ID": "1999-025WF", "EPOCH": "2025-12-10T08:30:41.205312", "MEAN_MOTION": 14.04074904, "ECCENTRICITY": 0.00381678, "INCLINATION": 98.8417, "RA_OF_ASC_NODE": 17.8042, "ARG_OF_PERICENTER": 43.747, "MEAN_ANOMALY": 338.8778, "EPHEMERIS_TYPE": 0, "CLASSIFICATION_TYPE": "U", "NORAD_CAT_ID": 30222, "ELEMENT_SET_NO": 999, "REV_AT_EPOCH": 96805, "BSTAR": -5.468915e-06, "MEAN_MOTION_DOT": -5.2e-07, "MEAN_MOTION_DDOT": 0}, "tle": {"line1": "1 30222U 99025WF  25344.35464358 -.00000052  00000+0 -54689-5 0  9995", "line2": "2 30222  98.8417  17.8042 0038167  43.7470 338.8778 14.04074904968055"}}, "geometry": {"type": "Point", "coordinates": [-41.95739728086333, 79.87769792847408]}}]}